NORAD_CAT_ID,OBJECT_NAME,OBJECT_TYPE,EPOCH,MEAN_MOTION,ECCENTRICITY,INCLINATION,RA_OF_ASC_NODE,ARG_OF_PERICENTER,MEAN_ANOMALY,BSTAR,MEAN_MOTION_DOT,MEAN_MOTION_DDOT,TLE_LINE0,TLE_LINE1,TLE_LINE2,SEMIMAJOR_AXIS,PERIOD,APOGEE,PERIGEE,DECAYED
53818.0,STARLINK-4749,PAYLOAD,2024-03-29 16:09:36,15.16388075,0.0001208,53.2188,229.986,86.6675,273.4459,7.4332e-05,1.151e-05,0.0,0 STARLINK-4749,1 53818U 22114A   24089.67333735  .00001151  00000-0  74332-4 0  9996,2 53818  53.2188 229.9860 0001208  86.6675 273.4459 15.16388075 86056,6894.905,94.962,517.603,515.937,0.0
53818.0,STARLINK-4749,PAYLOAD,2024-03-30 14:18:21,15.16390553,0.0001237,53.2188,225.7964,89.5068,270.6069,2.2531e-07,-3.06e-06,0.0,0 STARLINK-4749,1 53818U 22114A   24090.59607965 -.00000306  00000-0  22531-6 0  9996,2 53818  53.2188 225.7964 0001237  89.5068 270.6069 15.16390553 86190,6894.897,94.962,517.615,515.909,0.0
53818.0,STARLINK-4749,PAYLOAD,2024-03-30 15:53:15,15.16391648,0.0001232,53.219,225.498,90.4436,269.67,1.1358e-05,-8.7e-07,0.0,0 STARLINK-4749,1 53818U 22114A   24090.66198816 -.00000087  00000-0  11358-4 0  9993,2 53818  53.2190 225.4980 0001232  90.4436 269.6700 15.16391648 85569,6894.894,94.962,517.608,515.909,0.0
53818.0,STARLINK-4749,PAYLOAD,2024-03-31 14:01:59,15.16397489,0.0001225,53.2187,221.3069,89.3062,270.8074,3.6521e-05,4.08e-06,0.0,0 STARLINK-4749,1 53818U 22114A   24091.58471853  .00000408  00000-0  36521-4 0  9995,2 53818  53.2187 221.3069 0001225  89.3062 270.8074 15.16397489 86346,6894.876,94.962,517.586,515.897,0.0
53818.0,STARLINK-4749,PAYLOAD,2024-03-31 15:36:54,15.16397926,0.0001226,53.2188,221.0078,89.3424,270.7712,3.8768e-05,4.52e-06,0.0,0 STARLINK-4749,1 53818U 22114A   24091.65062768  .00000452  00000-0  38768-4 0  9998,2 53818  53.2188 221.0078 0001226  89.3424 270.7712 15.16397926 85711,6894.875,94.962,517.585,515.895,0.0
53818.0,STARLINK-4749,PAYLOAD,2024-04-01 12:10:44,15.16386803,0.000134,53.2195,217.117,89.3953,270.7196,-3.5192e-05,-1.002e-05,0.0,0 STARLINK-4749,1 53818U 22114A   24092.50746329 -.00001002  00000-0 -35192-4 0  9997,2 53818  53.2195 217.1170 0001340  89.3953 270.7196 15.16386803 85844,6894.909,94.963,517.697,515.85,0.0
53818.0,STARLINK-4749,PAYLOAD,2024-04-01 15:20:33,15.16389379,0.0001354,53.2195,216.5188,90.3385,269.7766,-1.818e-05,-6.68e-06,0.0,0 STARLINK-4749,1 53818U 22114A   24092.63928057 -.00000668  00000-0 -18180-4 0  9996,2 53818  53.2195 216.5188 0001354  90.3385 269.7766 15.16389379 86508,6894.901,94.962,517.699,515.832,0.0
53818.0,STARLINK-4749,PAYLOAD,2024-04-02 11:54:23,15.16392474,0.000144,53.2199,212.6289,97.2635,262.8525,-6.295e-05,-1.547e-05,0.0,0 STARLINK-4749,1 53818U 22114A   24093.49610749 -.00001547  00000-0 -62950-4 0  9998,2 53818  53.2199 212.6289 0001440  97.2635 262.8525 15.16392474 85990,6894.891,94.962,517.749,515.763,0.0
53818.0,STARLINK-4749,PAYLOAD,2024-04-02 15:04:13,15.16388801,0.0001435,53.2199,212.0291,92.2657,267.8503,-8.832e-05,-2.046e-05,0.0,0 STARLINK-4749,1 53818U 22114A   24093.62793048 -.00002046  00000-0 -88320-4 0  9991,2 53818  53.2199 212.0291 0001435  92.2657 267.8503 15.16388801 86654,6894.902,94.962,517.757,515.778,0.0
53818.0,STARLINK-4749,PAYLOAD,2024-04-02 16:39:07,15.16389546,0.0001448,53.22,211.7294,89.6146,270.5015,-7.8626e-05,-1.855e-05,0.0,0 STARLINK-4749,1 53818U 22114A   24093.69383949 -.00001855  00000-0 -78626-4 0  9998,2 53818  53.2200 211.7294 0001448  89.6146 270.5015 15.16389546 86660,6894.9,94.962,517.764,515.767,0.0
53818.0,STARLINK-4749,PAYLOAD,2024-04-03 11:38:02,15.16387671,0.0001453,53.2197,208.1369,91.0005,269.1157,-1.2168e-05,-5.5e-06,0.0,0 STARLINK-4749,1 53818U 22114A   24094.48475519 -.00000550  00000-0 -12168-4 0  9991,2 53818  53.2197 208.1369 0001453  91.0005 269.1157 15.16387671 86786,6894.906,94.963,517.773,515.769,0.0
53818.0,STARLINK-4749,PAYLOAD,2024-04-04 12:56:36,15.16387864,0.0001427,53.2194,203.3464,88.8425,271.2734,-1.995e-05,-7.02e-06,0.0,0 STARLINK-4749,1 53818U 22114A   24095.53931443 -.00000702  00000-0 -19950-4 0  9996,2 53818  53.2194 203.3464 0001427  88.8425 271.2734 15.16387864 86304,6894.905,94.963,517.754,515.786,0.0
53818.0,STARLINK-4749,PAYLOAD,2024-04-04 14:31:31,15.16392444,0.000141,53.2189,203.0466,85.4559,274.6597,8.4167e-06,-1.45e-06,0.0,0 STARLINK-4749,1 53818U 22114A   24095.60522035 -.00000145  00000-0  84167-5 0  9990,2 53818  53.2189 203.0466 0001410  85.4559 274.6597 15.16392444 86955,6894.891,94.962,517.729,515.784,0.0
53818.0,STARLINK-4749,PAYLOAD,2024-04-05 03:10:46,15.16403549,0.0001392,53.2183,200.6534,93.7056,266.4098,5.99e-05,8.67e-06,0.0,0 STARLINK-4749,1 53818U 22114A   24096.13248707  .00000867  00000-0  59900-4 0  9996,2 53818  53.2183 200.6534 0001392  93.7056 266.4098 15.16403549 86393,6894.858,94.962,517.683,515.763,0.0
53818.0,STARLINK-4749,PAYLOAD,2024-04-05 12:40:15,15.16393209,0.0001301,53.2178,198.8558,91.8345,268.28,-3.5352e-06,-3.8e-06,0.0,0 STARLINK-4749,1 53818U 22114A   24096.52795333 -.00000380  00000-0 -35352-5 0  9999,2 53818  53.2178 198.8558 0001301  91.8345 268.2800 15.16393209 86450,6894.889,94.962,517.651,515.857,0.0
53818.0,STARLINK-4749,PAYLOAD,2024-04-05 14:15:09,15.16391077,0.00013,53.2178,198.5563,93.7518,266.3626,1.0292e-05,-1.08e-06,0.0,0 STARLINK-4749,1 53818U 22114A   24096.59386363 -.00000108  00000-0  10292-4 0  9997,2 53818  53.2178 198.5563 0001300  93.7518 266.3626 15.16391077 87104,6894.896,94.962,517.657,515.864,0.0
53818.0,STARLINK-4749,PAYLOAD,2024-04-05 15:50:04,15.16390462,0.0001293,53.2179,198.2573,93.8584,266.2559,5.1498e-06,-2.09e-06,0.0,0 STARLINK-4749,1 53818U 22114A   24096.65977409 -.00000209  00000-0  51498-5 0  9997,2 53818  53.2179 198.2573 0001293  93.8584 266.2559 15.16390462 87110,6894.897,94.962,517.654,515.871,0.0
53818.0,STARLINK-4749,PAYLOAD,2024-04-06 15:33:43,15.16394082,0.0001205,53.218,193.7671,94.5689,265.5444,-0.00010156,-2.306e-05,0.0,0 STARLINK-4749,1 53818U 22114A   24097.64842514 -.00002306  00000-0 -10156-3 0  9990,2 53818  53.2180 193.7671 0001205  94.5689 265.5444 15.16394082 86620,6894.886,94.962,517.582,515.921,0.0
53818.0,STARLINK-4749,PAYLOAD,2024-04-07 05:47:55,15.16390246,0.000105,53.2183,191.0724,91.0289,269.0826,-6.5724e-05,-1.602e-05,0.0,0 STARLINK-4749,1 53818U 22114A   24098.24161353 -.00001602  00000-0 -65724-4 0  9992,2 53818  53.2183 191.0724 0001050  91.0289 269.0826 15.16390246 87351,6894.898,94.962,517.487,516.039,0.0
53818.0,STARLINK-4749,PAYLOAD,2024-04-08 05:31:34,15.16374674,0.0001954,53.2156,186.5824,85.1777,274.9442,0.00019949,3.61e-05,0.0,0 STARLINK-4749,1 53818U 22114A   24099.23025487  .00003610  00000-0  19949-3 0  9995,2 53818  53.2156 186.5824 0001954  85.1777 274.9442 15.16374674 86861,6894.945,94.963,518.158,515.463,0.0
53818.0,STARLINK-4749,PAYLOAD,2024-04-08 11:51:12,15.16393546,0.0001555,53.2151,185.3853,85.0701,275.0472,6.2595e-07,-2.98e-06,0.0,0 STARLINK-4749,1 53818U 22114A   24099.49389758 -.00000298  00000-0  62595-6 0  9995,2 53818  53.2151 185.3853 0001555  85.0701 275.0472 15.16393546 87548,6894.888,94.962,517.825,515.681,0.0
53818.0,STARLINK-4749,PAYLOAD,2024-04-08 22:55:34,15.16401292,0.0001509,53.217,183.2896,81.6036,278.5131,5.8965e-05,8.49e-06,0.0,0 STARLINK-4749,1 53818U 22114A   24099.95525781  .00000849  00000-0  58965-4 0  9999,2 53818  53.2170 183.2896 0001509  81.6036 278.5131 15.16401292 87611,6894.865,94.962,517.77,515.689,0.0
53818.0,STARLINK-4749,PAYLOAD,2024-04-09 05:15:12,15.16401364,0.0001721,53.2152,182.0919,83.9171,276.2021,1.7723e-05,3.8e-07,0.0,0 STARLINK-4749,1 53818U 22114A   24100.21889853  .00000038  00000-0  17723-4 0  9991,2 53818  53.2152 182.0919 0001721  83.9171 276.2021 15.16401364 87012,6894.864,94.962,517.916,515.543,0.0
53818.0,STARLINK-4749,PAYLOAD,2024-04-09 11:34:51,15.1639217,0.0001523,53.2167,180.8958,81.1896,278.9272,-4.0076e-05,-1.098e-05,0.0,0 STARLINK-4749,1 53818U 22114A   24100.48254584 -.00001098  00000-0 -40076-4 0  9993,2 53818  53.2167 180.8958 0001523  81.1896 278.9272 15.16392170 87056,6894.892,94.962,517.807,515.707,0.0
53818.0,STARLINK-4749,PAYLOAD,2024-04-09 22:39:13,15.16396116,0.000155,53.2175,178.8008,80.1763,279.9408,4.4485e-05,5.64e-06,0.0,0 STARLINK-4749,1 53818U 22114A   24100.94390746  .00000564  00000-0  44485-4 0  9998,2 53818  53.2175 178.8008 0001550  80.1763 279.9408 15.16396116 87764,6894.88,94.962,517.814,515.677,0.0
53818.0,STARLINK-4749,PAYLOAD,2024-04-10 11:18:30,15.16397662,0.0001618,53.2174,176.4049,87.1803,272.9378,5.1865e-05,7.09e-06,0.0,0 STARLINK-4749,1 53818U 22114A   24101.47118491  .00000709  00000-0  51865-4 0  9993,2 53818  53.2174 176.4049 0001618  87.1803 272.9378 15.16397662 87844,6894.876,94.962,517.856,515.625,0.0
53818.0,STARLINK-4749,PAYLOAD,2024-04-11 04:42:31,15.16392062,0.0001367,53.2179,173.1124,85.9864,274.1288,5.4156e-05,7.54e-06,0.0,0 STARLINK-4749,1 53818U 22114A   24102.19619431  .00000754  00000-0  54156-4 0  9999,2 53818  53.2179 173.1124 0001367  85.9864 274.1288 15.16392062 87316,6894.893,94.962,517.7,515.815,0.0
53818.0,STARLINK-4749,PAYLOAD,2024-04-11 11:02:09,15.16392539,0.0001371,53.2182,171.915,86.3289,273.7864,5.6531e-05,8.01e-06,0.0,0 STARLINK-4749,1 53818U 22114A   24102.45983353  .00000801  00000-0  56531-4 0  9997,2 53818  53.2182 171.9150 0001371  86.3289 273.7864 15.16392539 87994,6894.891,94.962,517.701,515.811,0.0
53818.0,STARLINK-4749,PAYLOAD,2024-04-12 10:45:48,15.1639568,0.0001435,53.2182,167.4252,87.6281,272.4878,3.606e-05,3.98e-06,0.0,0 STARLINK-4749,1 53818U 22114A   24103.44847909  .00000398  00000-0  36060-4 0  9999,2 53818  53.2182 167.4252 0001435  87.6281 272.4878 15.16395680 87502,6894.882,94.962,517.736,515.757,0.0
53818.0,STARLINK-4749,PAYLOAD,2024-04-13 10:29:28,15.163912,0.0001421,53.2184,162.9354,86.9488,273.167,7.2775e-06,-1.67e-06,0.0,0 STARLINK-4749,1 53818U 22114A   24104.43713005 -.00000167  00000-0  72775-5 0  9997,2 53818  53.2184 162.9354 0001421  86.9488 273.1670 15.16391200 87651,6894.895,94.962,517.74,515.78,0.0
